IRIDIUM 39              
1 25042U 97069D   26002.86256827  .00001441  00000+0  36990-3 0  9997
2 25042  86.3933 125.5739 0017662   6.0295 354.1118 14.49545420477888
IRIDIUM 38              
1 25043U 97069E   26002.91819635  .00000971  00000+0  31277-3 0  9996
2 25043  86.3990 149.2032 0003198 127.8187 232.3301 14.38340523474661
IRIDIUM 42              
1 25077U 97077A   26002.96163509  .00000894  00000+0  29788-3 0  9997
2 25077  86.3994 155.5995 0002141 114.0141 246.1280 14.36556359469875
IRIDIUM 44              
1 25078U 97077B   26002.86269790  .00000833  00000+0  25599-3 0  9995
2 25078  86.3987 137.0427 0003909  92.5872 267.5775 14.40454563472449
IRIDIUM 45              
1 25104U 97082A   26002.90419506  .00045517  00000+0  12460-2 0  9998
2 25104  86.3551 310.2376 0092114 299.6585  59.5515 15.32883925482511
IRIDIUM 24              
1 25105U 97082B   26002.92316697  .00001013  00000+0  30058-3 0  9995
2 25105  86.3911 355.5620 0012858 130.6141 229.6180 14.42354259472009
IRIDIUM 51              
1 25262U 98018A   26002.88404644  .00166191  00000+0  14490-2 0  9994
2 25262  86.3725 315.3496 0046770 182.8075 177.2940 15.67044328477958
IRIDIUM 57              
1 25273U 98019B   26002.67585940  .00000653  00000+0  21788-3 0  9992
2 25273  86.3938  61.6068 0002274  96.3372 263.8084 14.36069934453413
